[{"OBJECT_NAME":"ONEWEB-0592","OBJECT_ID":"2022-166S","EPOCH":"2025-11-27T21:13:05.820960","MEAN_MOTION":13.2182389,"ECCENTRICITY":0.00017897,"INCLINATION":87.9211,"RA_OF_ASC_NODE":284.1042,"ARG_OF_PERICENTER":81.4303,"MEAN_ANOMALY":278.7034,"EPHEMERIS_TYPE":0,"CLASSIFICATION_TYPE":"U","NORAD_CAT_ID":54658,"ELEMENT_SET_NO":999,"REV_AT_EPOCH":14484,"BSTAR":-0.00039277177,"MEAN_MOTION_DOT":-1.49e-6,"MEAN_MOTION_DDOT":0},{"OBJECT_NAME":"ONEWEB-0593","OBJECT_ID":"2022-166T","EPOCH":"2025-11-27T21:46:17.885280","MEAN_MOTION":13.21824844,"ECCENTRICITY":0.00019426,"INCLINATION":87.9204,"RA_OF_ASC_NODE":284.1277,"ARG_OF_PERICENTER":84.77,"MEAN_ANOMALY":275.3655,"EPHEMERIS_TYPE":0,"CLASSIFICATION_TYPE":"U","NORAD_CAT_ID":54659,"ELEMENT_SET_NO":999,"REV_AT_EPOCH":14495,"BSTAR":-5.468254e-5,"MEAN_MOTION_DOT":-1.0e-7,"MEAN_MOTION_DDOT":0},{"OBJECT_NAME":"ONEWEB-0594","OBJECT_ID":"2022-166U","EPOCH":"2025-11-27T20:25:41.763648","MEAN_MOTION":13.21824559,"ECCENTRICITY":0.00019345,"INCLINATION":87.9204,"RA_OF_ASC_NODE":284.1571,"ARG_OF_PERICENTER":79.0163,"MEAN_ANOMALY":281.1189,"EPHEMERIS_TYPE":0,"CLASSIFICATION_TYPE":"U","NORAD_CAT_ID":54660,"ELEMENT_SET_NO":999,"REV_AT_EPOCH":14496,"BSTAR":-0.00062585874,"MEAN_MOTION_DOT":-2.45e-6,"MEAN_MOTION_DDOT":0},{"OBJECT_NAME":"ONEWEB-0595","OBJECT_ID":"2022-166V","EPOCH":"2025-11-27T21:41:32.373888","MEAN_MOTION":13.2182715,"ECCENTRICITY":0.0001884,"INCLINATION":87.9203,"RA_OF_ASC_NODE":284.1195,"ARG_OF_PERICENTER":74.725,"MEAN_ANOMALY":285.4093,"EPHEMERIS_TYPE":0,"CLASSIFICATION_TYPE":"U","NORAD_CAT_ID":54661,"ELEMENT_SET_NO":999,"REV_AT_EPOCH":14494,"BSTAR":-9.425462e-5,"MEAN_MOTION_DOT":-2.6e-7,"MEAN_MOTION_DDOT":0},{"OBJECT_NAME":"ONEWEB-0596","OBJECT_ID":"2022-166W","EPOCH":"2025-11-27T21:03:37.972512","MEAN_MOTION":13.21824312,"ECCENTRICITY":0.00018413,"INCLINATION":87.9204,"RA_OF_ASC_NODE":284.1418,"ARG_OF_PERICENTER":78.4983,"MEAN_ANOMALY":281.6358,"EPHEMERIS_TYPE":0,"CLASSIFICATION_TYPE":"U","NORAD_CAT_ID":54662,"ELEMENT_SET_NO":999,"REV_AT_EPOCH":14494,"BSTAR":3.8923633e-5,"MEAN_MOTION_DOT":2.9e-7,"MEAN_MOTION_DDOT":0},{"OBJECT_NAME":"ONEWEB-0597","OBJECT_ID":"2022-166X","EPOCH":"2025-11-27T20:37:33.514752","MEAN_MOTION":13.21823416,"ECCENTRICITY":0.00018183,"INCLINATION":87.9204,"RA_OF_ASC_NODE":284.1498,"ARG_OF_PERICENTER":83.9399,"MEAN_ANOMALY":276.1942,"EPHEMERIS_TYPE":0,"CLASSIFICATION_TYPE":"U","NORAD_CAT_ID":54663,"ELEMENT_SET_NO":999,"REV_AT_EPOCH":14494,"BSTAR":-0.00013020465,"MEAN_MOTION_DOT":-4.1e-7,"MEAN_MOTION_DDOT":0},{"OBJECT_NAME":"ONEWEB-0600","OBJECT_ID":"2022-166Y","EPOCH":"2025-11-27T22:00:29.219040","MEAN_MOTION":13.21825105,"ECCENTRICITY":0.00019134,"INCLINATION":87.9204,"RA_OF_ASC_NODE":284.1291,"ARG_OF_PERICENTER":84.5975,"MEAN_ANOMALY":275.5377,"EPHEMERIS_TYPE":0,"CLASSIFICATION_TYPE":"U","NORAD_CAT_ID":54664,"ELEMENT_SET_NO":999,"REV_AT_EPOCH":14492,"BSTAR":-0.0010464437,"MEAN_MOTION_DOT":-4.19e-6,"MEAN_MOTION_DDOT":0},{"OBJECT_NAME":"ONEWEB-0601","OBJECT_ID":"2022-166Z","EPOCH":"2025-11-27T21:48:38.325888","MEAN_MOTION":13.21825034,"ECCENTRICITY":0.00017578,"INCLINATION":87.9201,"RA_OF_ASC_NODE":284.1486,"ARG_OF_PERICENTER":89.5835,"MEAN_ANOMALY":270.55,"EPHEMERIS_TYPE":0,"CLASSIFICATION_TYPE":"U","NORAD_CAT_ID":54665,"ELEMENT_SET_NO":999,"REV_AT_EPOCH":14511,"BSTAR":-0.00052757486,"MEAN_MOTION_DOT":-2.05e-6,"MEAN_MOTION_DDOT":0},{"OBJECT_NAME":"ONEWEB-0602","OBJECT_ID":"2022-166AA","EPOCH":"2025-11-27T20:57:43.545024","MEAN_MOTION":13.21825962,"ECCENTRICITY":0.00021713,"INCLINATION":87.9206,"RA_OF_ASC_NODE":284.1598,"ARG_OF_PERICENTER":88.3188,"MEAN_ANOMALY":271.8195,"EPHEMERIS_TYPE":0,"CLASSIFICATION_TYPE":"U","NORAD_CAT_ID":54666,"ELEMENT_SET_NO":999,"REV_AT_EPOCH":14495,"BSTAR":0.00013527598,"MEAN_MOTION_DOT":6.9e-7,"MEAN_MOTION_DDOT":0},{"OBJECT_NAME":"ONEWEB-0603","OBJECT_ID":"2022-166AB","EPOCH":"2025-11-27T21:06:01.446624","MEAN_MOTION":13.2182707,"ECCENTRICITY":0.00018748,"INCLINATION":87.9213,"RA_OF_ASC_NODE":284.0968,"ARG_OF_PERICENTER":85.5556,"MEAN_ANOMALY":274.5792,"EPHEMERIS_TYPE":0,"CLASSIFICATION_TYPE":"U","NORAD_CAT_ID":54667,"ELEMENT_SET_NO":999,"REV_AT_EPOCH":14488,"BSTAR":0.00015743676,"MEAN_MOTION_DOT":7.8e-7,"MEAN_MOTION_DDOT":0},{"OBJECT_NAME":"ONEWEB-0604","OBJECT_ID":"2022-166AC","EPOCH":"2025-11-27T20:49:26.048640","MEAN_MOTION":13.21824781,"ECCENTRICITY":0.00019137,"INCLINATION":87.921,"RA_OF_ASC_NODE":284.1193,"ARG_OF_PERICENTER":81.1644,"MEAN_ANOMALY":278.9706,"EPHEMERIS_TYPE":0,"CLASSIFICATION_TYPE":"U","NORAD_CAT_ID":54668,"ELEMENT_SET_NO":999,"REV_AT_EPOCH":14484,"BSTAR":0.00085112145,"MEAN_MOTION_DOT":3.65e-6,"MEAN_MOTION_DDOT":0},{"OBJECT_NAME":"ONEWEB-0605","OBJECT_ID":"2022-166AD","EPOCH":"2025-11-27T20:39:55.527840","MEAN_MOTION":13.21823357,"ECCENTRICITY":0.00013126,"INCLINATION":87.9201,"RA_OF_ASC_NODE":284.1494,"ARG_OF_PERICENTER":92.313,"MEAN_ANOMALY":267.8154,"EPHEMERIS_TYPE":0,"CLASSIFICATION_TYPE":"U","NORAD_CAT_ID":54669,"ELEMENT_SET_NO":999,"REV_AT_EPOCH":14491,"BSTAR":-6.0364128e-5,"MEAN_MOTION_DOT":-1.2e-7,"MEAN_MOTION_DDOT":0},{"OBJECT_NAME":"ONEWEB-0606","OBJECT_ID":"2022-166AE","EPOCH":"2025-11-27T21:10:44.600160","MEAN_MOTION":13.21824,"ECCENTRICITY":0.00019223,"INCLINATION":87.9203,"RA_OF_ASC_NODE":284.1561,"ARG_OF_PERICENTER":75.0086,"MEAN_ANOMALY":285.126,"EPHEMERIS_TYPE":0,"CLASSIFICATION_TYPE":"U","NORAD_CAT_ID":54670,"ELEMENT_SET_NO":999,"REV_AT_EPOCH":14497,"BSTAR":-5.0449747e-5,"MEAN_MOTION_DOT":-8.0e-8,"MEAN_MOTION_DDOT":0},{"OBJECT_NAME":"ONEWEB-0607","OBJECT_ID":"2022-166AF","EPOCH":"2025-11-27T20:23:20.552352","MEAN_MOTION":13.21823738,"ECCENTRICITY":0.00018593,"INCLINATION":87.9203,"RA_OF_ASC_NODE":284.1263,"ARG_OF_PERICENTER":85.0242,"MEAN_ANOMALY":275.1104,"EPHEMERIS_TYPE":0,"CLASSIFICATION_TYPE":"U","NORAD_CAT_ID":54671,"ELEMENT_SET_NO":999,"REV_AT_EPOCH":14494,"BSTAR":-0.00026106143,"MEAN_MOTION_DOT":-9.5e-7,"MEAN_MOTION_DDOT":0},{"OBJECT_NAME":"ONEWEB-0608","OBJECT_ID":"2022-166AG","EPOCH":"2025-11-27T20:32:49.359840","MEAN_MOTION":13.21828601,"ECCENTRICITY":0.00014734,"INCLINATION":87.9212,"RA_OF_ASC_NODE":284.1116,"ARG_OF_PERICENTER":95.5175,"MEAN_ANOMALY":264.6127,"EPHEMERIS_TYPE":0,"CLASSIFICATION_TYPE":"U","NORAD_CAT_ID":54672,"ELEMENT_SET_NO":999,"REV_AT_EPOCH":14495,"BSTAR":-6.3476523e-5,"MEAN_MOTION_DOT":-1.3e-7,"MEAN_MOTION_DDOT":0},{"OBJECT_NAME":"ONEWEB-0610","OBJECT_ID":"2022-166AH","EPOCH":"2025-11-27T21:53:23.123616","MEAN_MOTION":13.21827215,"ECCENTRICITY":0.00015856,"INCLINATION":87.9202,"RA_OF_ASC_NODE":284.1346,"ARG_OF_PERICENTER":98.8103,"MEAN_ANOMALY":261.3211,"EPHEMERIS_TYPE":0,"CLASSIFICATION_TYPE":"U","NORAD_CAT_ID":54673,"ELEMENT_SET_NO":999,"REV_AT_EPOCH":14486,"BSTAR":-9.021417e-5,"MEAN_MOTION_DOT":-2.4e-7,"MEAN_MOTION_DDOT":0}]
