ONEWEB-0592             
1 54658U 22166S   25331.88409515 -.00000149  00000+0 -39277-3 0  9995
2 54658  87.9211 284.1042 0001789  81.4303 278.7034 13.21823890144842
ONEWEB-0593             
1 54659U 22166T   25331.90715145 -.00000010  00000+0 -54683-4 0  9994
2 54659  87.9204 284.1277 0001942  84.7700 275.3655 13.21824844144957
ONEWEB-0594             
1 54660U 22166U   25331.85117782 -.00000245  00000+0 -62586-3 0  9993
2 54660  87.9204 284.1571 0001934  79.0163 281.1189 13.21824559144968
ONEWEB-0595             
1 54661U 22166V   25331.90384692 -.00000026  00000+0 -94255-4 0  9992
2 54661  87.9203 284.1195 0001884  74.7250 285.4093 13.21827150144942
ONEWEB-0596             
1 54662U 22166W   25331.87752283  .00000029  00000+0  38924-4 0  9996
2 54662  87.9204 284.1418 0001841  78.4983 281.6358 13.21824312144948
ONEWEB-0597             
1 54663U 22166X   25331.85941568 -.00000041  00000+0 -13020-3 0  9996
2 54663  87.9204 284.1498 0001818  83.9399 276.1942 13.21823416144945
ONEWEB-0600             
1 54664U 22166Y   25331.91700485 -.00000419  00000+0 -10464-2 0  9992
2 54664  87.9204 284.1291 0001913  84.5975 275.5377 13.21825105144920
ONEWEB-0601             
1 54665U 22166Z   25331.90877692 -.00000205  00000+0 -52757-3 0  9992
2 54665  87.9201 284.1486 0001757  89.5835 270.5500 13.21825034145116
ONEWEB-0602             
1 54666U 22166AA  25331.87342066  .00000069  00000+0  13528-3 0  9990
2 54666  87.9206 284.1598 0002171  88.3188 271.8195 13.21825962144950
ONEWEB-0603             
1 54667U 22166AB  25331.87918341  .00000078  00000+0  15744-3 0  9998
2 54667  87.9213 284.0968 0001874  85.5556 274.5792 13.21827070144883
ONEWEB-0604             
1 54668U 22166AC  25331.86766260  .00000365  00000+0  85112-3 0  9994
2 54668  87.9210 284.1193 0001913  81.1644 278.9706 13.21824781144841
ONEWEB-0605             
1 54669U 22166AD  25331.86105935 -.00000012  00000+0 -60364-4 0  9995
2 54669  87.9201 284.1494 0001312  92.3130 267.8154 13.21823357144913
ONEWEB-0606             
1 54670U 22166AE  25331.88246065 -.00000008  00000+0 -50450-4 0  9999
2 54670  87.9203 284.1561 0001922  75.0086 285.1260 13.21824000144970
ONEWEB-0607             
1 54671U 22166AF  25331.84954343 -.00000095  00000+0 -26106-3 0  9997
2 54671  87.9203 284.1263 0001859  85.0242 275.1104 13.21823738144944
ONEWEB-0608             
1 54672U 22166AG  25331.85612685 -.00000013  00000+0 -63477-4 0  9992
2 54672  87.9212 284.1116 0001473  95.5175 264.6127 13.21828601144958
ONEWEB-0610             
1 54673U 22166AH  25331.91207319 -.00000024  00000+0 -90214-4 0  9995
2 54673  87.9202 284.1346 0001585  98.8103 261.3211 13.21827215144862
